[
  {
    "OBJECT_NAME": "STARLINK-31874",
    "OBJECT_ID": "2024-150W",
    "EPOCH": "2025-06-28T21:25:48.687168",
    "MEAN_MOTION": 15.30185517,
    "ECCENTRICITY": 9.55e-05,
    "INCLINATION": 53.1592,
    "RA_OF_ASC_NODE": 45.909,
    "ARG_OF_PERICENTER": 78.2866,
    "MEAN_ANOMALY": 281.8242,
    "EPHEMERIS_TYPE": 0,
    "CLASSIFICATION_TYPE": "U",
    "NORAD_CAT_ID": 60603,
    "ELEMENT_SET_NO": 999,
    "REV_AT_EPOCH": 4918,
    "BSTAR": 2.011e-05,
    "MEAN_MOTION_DOT": 2.36e-06,
    "MEAN_MOTION_DDOT": 0
  },
  {
    "OBJECT_NAME": "STARLINK-32039",
    "OBJECT_ID": "2024-150X",
    "EPOCH": "2025-06-28T19:37:29.800128",
    "MEAN_MOTION": 15.30176906,
    "ECCENTRICITY": 0.0001472,
    "INCLINATION": 53.1608,
    "RA_OF_ASC_NODE": 48.9936,
    "ARG_OF_PERICENTER": 103.165,
    "MEAN_ANOMALY": 256.9515,
    "EPHEMERIS_TYPE": 0,
    "CLASSIFICATION_TYPE": "U",
    "NORAD_CAT_ID": 60604,
    "ELEMENT_SET_NO": 999,
    "REV_AT_EPOCH": 4913,
    "BSTAR": -3.8679e-05,
    "MEAN_MOTION_DOT": -1.504e-05,
    "MEAN_MOTION_DDOT": 0
  },
  {
    "OBJECT_NAME": "STARLINK-11247 [DTC]",
    "OBJECT_ID": "2024-152A",
    "EPOCH": "2025-06-28T14:29:22.202880",
    "MEAN_MOTION": 15.69712423,
    "ECCENTRICITY": 4.1e-05,
    "INCLINATION": 53.1597,
    "RA_OF_ASC_NODE": 289.1296,
    "ARG_OF_PERICENTER": 74.8812,
    "MEAN_ANOMALY": 285.2251,
    "EPHEMERIS_TYPE": 0,
    "CLASSIFICATION_TYPE": "U",
    "NORAD_CAT_ID": 60720,
    "ELEMENT_SET_NO": 999,
    "REV_AT_EPOCH": 4892,
    "BSTAR": -3.9976e-06,
    "MEAN_MOTION_DOT": -1.072e-05,
    "MEAN_MOTION_DDOT": 0
  },
  {
    "OBJECT_NAME": "STARLINK-11259 [DTC]",
    "OBJECT_ID": "2024-152B",
    "EPOCH": "2025-06-28T14:22:17.679936",
    "MEAN_MOTION": 15.69717792,
    "ECCENTRICITY": 4.16e-05,
    "INCLINATION": 53.1577,
    "RA_OF_ASC_NODE": 289.0967,
    "ARG_OF_PERICENTER": 51.6903,
    "MEAN_ANOMALY": 308.4152,
    "EPHEMERIS_TYPE": 0,
    "CLASSIFICATION_TYPE": "U",
    "NORAD_CAT_ID": 60721,
    "ELEMENT_SET_NO": 999,
    "REV_AT_EPOCH": 4892,
    "BSTAR": 1.6644e-05,
    "MEAN_MOTION_DOT": 1.43e-05,
    "MEAN_MOTION_DDOT": 0
  },
  {
    "OBJECT_NAME": "STARLINK-11188 [DTC]",
    "OBJECT_ID": "2024-152C",
    "EPOCH": "2025-06-28T14:15:15.477696",
    "MEAN_MOTION": 15.69697672,
    "ECCENTRICITY": 7.37e-05,
    "INCLINATION": 53.1585,
    "RA_OF_ASC_NODE": 289.0648,
    "ARG_OF_PERICENTER": 69.5978,
    "MEAN_ANOMALY": 290.5119,
    "EPHEMERIS_TYPE": 0,
    "CLASSIFICATION_TYPE": "U",
    "NORAD_CAT_ID": 60722,
    "ELEMENT_SET_NO": 999,
    "REV_AT_EPOCH": 4904,
    "BSTAR": -1.8309e-05,
    "MEAN_MOTION_DOT": -2.804e-05,
    "MEAN_MOTION_DDOT": 0
  },
  {
    "OBJECT_NAME": "STARLINK-11272 [DTC]",
    "OBJECT_ID": "2024-152D",
    "EPOCH": "2025-06-28T14:01:06.342816",
    "MEAN_MOTION": 15.69718647,
    "ECCENTRICITY": 4.44e-05,
    "INCLINATION": 53.159,
    "RA_OF_ASC_NODE": 288.9961,
    "ARG_OF_PERICENTER": 116.122,
    "MEAN_ANOMALY": 243.9844,
    "EPHEMERIS_TYPE": 0,
    "CLASSIFICATION_TYPE": "U",
    "NORAD_CAT_ID": 60723,
    "ELEMENT_SET_NO": 999,
    "REV_AT_EPOCH": 4894,
    "BSTAR": 7.1643e-06,
    "MEAN_MOTION_DOT": 2.81e-06,
    "MEAN_MOTION_DDOT": 0
  },
  {
    "OBJECT_NAME": "STARLINK-11261 [DTC]",
    "OBJECT_ID": "2024-152E",
    "EPOCH": "2025-06-28T17:11:32.497440",
    "MEAN_MOTION": 15.69728449,
    "ECCENTRICITY": 5.74e-05,
    "INCLINATION": 53.1587,
    "RA_OF_ASC_NODE": 288.4036,
    "ARG_OF_PERICENTER": 77.0614,
    "MEAN_ANOMALY": 283.0468,
    "EPHEMERIS_TYPE": 0,
    "CLASSIFICATION_TYPE": "U",
    "NORAD_CAT_ID": 60724,
    "ELEMENT_SET_NO": 999,
    "REV_AT_EPOCH": 4895,
    "BSTAR": -1.9894e-05,
    "MEAN_MOTION_DOT": -2.999e-05,
    "MEAN_MOTION_DDOT": 0
  },
  {
    "OBJECT_NAME": "STARLINK-11263 [DTC]",
    "OBJECT_ID": "2024-152F",
    "EPOCH": "2025-06-28T16:57:24.776928",
    "MEAN_MOTION": 15.69736147,
    "ECCENTRICITY": 8.76e-05,
    "INCLINATION": 53.1582,
    "RA_OF_ASC_NODE": 288.338,
    "ARG_OF_PERICENTER": 106.7112,
    "MEAN_ANOMALY": 253.4002,
    "EPHEMERIS_TYPE": 0,
    "CLASSIFICATION_TYPE": "U",
    "NORAD_CAT_ID": 60725,
    "ELEMENT_SET_NO": 999,
    "REV_AT_EPOCH": 4896,
    "BSTAR": -4.9483e-05,
    "MEAN_MOTION_DOT": -6.585e-05,
    "MEAN_MOTION_DDOT": 0
  },
  {
    "OBJECT_NAME": "STARLINK-11235 [DTC]",
    "OBJECT_ID": "2024-152G",
    "EPOCH": "2025-06-28T13:46:58.821024",
    "MEAN_MOTION": 15.69721111,
    "ECCENTRICITY": 9.9e-06,
    "INCLINATION": 53.1578,
    "RA_OF_ASC_NODE": 288.9327,
    "ARG_OF_PERICENTER": 13.3052,
    "MEAN_ANOMALY": 346.7968,
    "EPHEMERIS_TYPE": 0,
    "CLASSIFICATION_TYPE": "U",
    "NORAD_CAT_ID": 60726,
    "ELEMENT_SET_NO": 999,
    "REV_AT_EPOCH": 4905,
    "BSTAR": -9.3408e-06,
    "MEAN_MOTION_DOT": -1.719e-05,
    "MEAN_MOTION_DDOT": 0
  },
  {
    "OBJECT_NAME": "STARLINK-11080 [DTC]",
    "OBJECT_ID": "2024-152H",
    "EPOCH": "2025-06-28T16:43:17.814144",
    "MEAN_MOTION": 15.69697367,
    "ECCENTRICITY": 6.82e-05,
    "INCLINATION": 53.1582,
    "RA_OF_ASC_NODE": 288.2727,
    "ARG_OF_PERICENTER": 76.3364,
    "MEAN_ANOMALY": 283.773,
    "EPHEMERIS_TYPE": 0,
    "CLASSIFICATION_TYPE": "U",
    "NORAD_CAT_ID": 60727,
    "ELEMENT_SET_NO": 999,
    "REV_AT_EPOCH": 4907,
    "BSTAR": 1.4377e-05,
    "MEAN_MOTION_DOT": 1.153e-05,
    "MEAN_MOTION_DDOT": 0
  },
  {
    "OBJECT_NAME": "STARLINK-11249 [DTC]",
    "OBJECT_ID": "2024-152J",
    "EPOCH": "2025-06-28T13:32:51.618048",
    "MEAN_MOTION": 15.69707536,
    "ECCENTRICITY": 3.78e-05,
    "INCLINATION": 53.1584,
    "RA_OF_ASC_NODE": 288.8665,
    "ARG_OF_PERICENTER": 55.5376,
    "MEAN_ANOMALY": 304.5678,
    "EPHEMERIS_TYPE": 0,
    "CLASSIFICATION_TYPE": "U",
    "NORAD_CAT_ID": 60728,
    "ELEMENT_SET_NO": 999,
    "REV_AT_EPOCH": 4894,
    "BSTAR": 3.9773e-06,
    "MEAN_MOTION_DOT": -1.06e-06,
    "MEAN_MOTION_DDOT": 0
  },
  {
    "OBJECT_NAME": "STARLINK-11146 [DTC]",
    "OBJECT_ID": "2024-152K",
    "EPOCH": "2025-06-28T13:25:47.808768",
    "MEAN_MOTION": 15.69708169,
    "ECCENTRICITY": 8e-05,
    "INCLINATION": 53.159,
    "RA_OF_ASC_NODE": 288.8221,
    "ARG_OF_PERICENTER": 76.5521,
    "MEAN_ANOMALY": 283.5586,
    "EPHEMERIS_TYPE": 0,
    "CLASSIFICATION_TYPE": "U",
    "NORAD_CAT_ID": 60729,
    "ELEMENT_SET_NO": 999,
    "REV_AT_EPOCH": 4905,
    "BSTAR": 7.8735e-07,
    "MEAN_MOTION_DOT": -4.93e-06,
    "MEAN_MOTION_DDOT": 0
  },
  {
    "OBJECT_NAME": "STARLINK-11255 [DTC]",
    "OBJECT_ID": "2024-152L",
    "EPOCH": "2025-06-28T13:18:43.906176",
    "MEAN_MOTION": 15.69712096,
    "ECCENTRICITY": 5.67e-05,
    "INCLINATION": 53.1576,
    "RA_OF_ASC_NODE": 288.7995,
    "ARG_OF_PERICENTER": 111.2811,
    "MEAN_ANOMALY": 248.8267,
    "EPHEMERIS_TYPE": 0,
    "CLASSIFICATION_TYPE": "U",
    "NORAD_CAT_ID": 60730,
    "ELEMENT_SET_NO": 999,
    "REV_AT_EPOCH": 4893,
    "BSTAR": 1.0522e-05,
    "MEAN_MOTION_DOT": 6.87e-06,
    "MEAN_MOTION_DDOT": 0
  },
  {
    "OBJECT_NAME": "STARLINK-11254 [DTC]",
    "OBJECT_ID": "2024-152M",
    "EPOCH": "2025-06-28T16:15:02.702304",
    "MEAN_MOTION": 15.69701466,
    "ECCENTRICITY": 5.62e-05,
    "INCLINATION": 53.1584,
    "RA_OF_ASC_NODE": 288.1449,
    "ARG_OF_PERICENTER": 45.5339,
    "MEAN_ANOMALY": 314.5725,
    "EPHEMERIS_TYPE": 0,
    "CLASSIFICATION_TYPE": "U",
    "NORAD_CAT_ID": 60731,
    "ELEMENT_SET_NO": 999,
    "REV_AT_EPOCH": 4895,
    "BSTAR": -1.0638e-06,
    "MEAN_MOTION_DOT": -7.16e-06,
    "MEAN_MOTION_DDOT": 0
  },
  {
    "OBJECT_NAME": "STARLINK-11266 [DTC]",
    "OBJECT_ID": "2024-152N",
    "EPOCH": "2025-06-28T14:36:17.322048",
    "MEAN_MOTION": 15.69702356,
    "ECCENTRICITY": 8.86e-05,
    "INCLINATION": 53.1584,
    "RA_OF_ASC_NODE": 288.4122,
    "ARG_OF_PERICENTER": 107.0224,
    "MEAN_ANOMALY": 253.0891,
    "EPHEMERIS_TYPE": 0,
    "CLASSIFICATION_TYPE": "U",
    "NORAD_CAT_ID": 60732,
    "ELEMENT_SET_NO": 999,
    "REV_AT_EPOCH": 4893,
    "BSTAR": 9.5607e-06,
    "MEAN_MOTION_DOT": 5.7e-06,
    "MEAN_MOTION_DDOT": 0
  },
  {
    "OBJECT_NAME": "STARLINK-32253",
    "OBJECT_ID": "2024-152P",
    "EPOCH": "2025-06-28T11:54:28.353600",
    "MEAN_MOTION": 15.30198418,
    "ECCENTRICITY": 0.0001248,
    "INCLINATION": 53.1604,
    "RA_OF_ASC_NODE": 9.0576,
    "ARG_OF_PERICENTER": 93.5874,
    "MEAN_ANOMALY": 266.5269,
    "EPHEMERIS_TYPE": 0,
    "CLASSIFICATION_TYPE": "U",
    "NORAD_CAT_ID": 60733,
    "ELEMENT_SET_NO": 999,
    "REV_AT_EPOCH": 4788,
    "BSTAR": -5.1192e-05,
    "MEAN_MOTION_DOT": -1.875e-05,
    "MEAN_MOTION_DDOT": 0
  },
  {
    "OBJECT_NAME": "STARLINK-32179",
    "OBJECT_ID": "2024-152Q",
    "EPOCH": "2025-06-28T19:11:28.158144",
    "MEAN_MOTION": 15.30195332,
    "ECCENTRICITY": 0.0001293,
    "INCLINATION": 53.1618,
    "RA_OF_ASC_NODE": 8.117,
    "ARG_OF_PERICENTER": 83.7518,
    "MEAN_ANOMALY": 276.363,
    "EPHEMERIS_TYPE": 0,
    "CLASSIFICATION_TYPE": "U",
    "NORAD_CAT_ID": 60734,
    "ELEMENT_SET_NO": 999,
    "REV_AT_EPOCH": 4786,
    "BSTAR": 3.233e-05,
    "MEAN_MOTION_DOT": 5.98e-06,
    "MEAN_MOTION_DDOT": 0
  },
  {
    "OBJECT_NAME": "STARLINK-32272",
    "OBJECT_ID": "2024-152R",
    "EPOCH": "2025-06-28T19:02:21.103584",
    "MEAN_MOTION": 15.30189767,
    "ECCENTRICITY": 0.0001115,
    "INCLINATION": 53.1609,
    "RA_OF_ASC_NODE": 8.0767,
    "ARG_OF_PERICENTER": 70.3181,
    "MEAN_ANOMALY": 289.794,
    "EPHEMERIS_TYPE": 0,
    "CLASSIFICATION_TYPE": "U",
    "NORAD_CAT_ID": 60735,
    "ELEMENT_SET_NO": 999,
    "REV_AT_EPOCH": 4792,
    "BSTAR": 6.1868e-05,
    "MEAN_MOTION_DOT": 1.473e-05,
    "MEAN_MOTION_DDOT": 0
  }
]